ALOS (DAICHI)           
1 28931U 06002A   26005.59500709  .00002125  00000+0  36611-3 0  9998
2 28931  98.1128 321.9191 0002014 101.4176 258.7256 14.69578072 64214
H-2A R/B                
1 28932U 06002B   26008.33908759  .00010772  00000+0  55637-3 0  9997
2 28932  98.2331 150.2742 0054622  86.7898 273.9579 15.15191279 85295
RESURS-DK 1             
1 29228U 06021A   26008.15638924  .00002511  00000+0  15067-3 0  9996
2 29228  69.9340  33.5583 0006566 237.1653 122.8881 15.12343098 78374
CZ-4B R/B               
1 29507U 06046C   26008.10485973  .00003966  00000+0  20578-3 0  9990
2 29507  97.5697  53.1716 0035216 116.3514 244.1342 15.16190716 50865
CZ-2C R/B               
1 31114U 07010B   26008.27921352  .00000176  00000+0  99492-4 0  9995
2 31114  98.3971 124.5947 0060066 109.6188 251.1487 14.20222697971147
COSMO-SKYMED 1          
1 31598U 07023A   26008.27732991  .00004845  00000+0  43704-3 0  9995
2 31598  97.8848 198.8548 0001620  83.6113 276.5293 14.96011805  5875
COSMOS 2428             
1 31792U 07029A   26008.28744158  .00000341  00000+0  20909-3 0  9995
2 31792  70.9388 330.1401 0005220 347.2932  12.8056 14.12904940955566
SL-16 R/B               
1 31793U 07029B   26008.26596499 -.00000057  00000+0 -49909-5 0  9996
2 31793  70.9774 299.3978 0002186 273.1238 199.7832 14.14825834956828
KORONAS-FOTON           
1 33504U 09003A   26008.30473424  .00011487  00000+0  26987-3 0  9995
2 33504  82.4323 338.5667 0012054  25.6925 334.4917 15.41786795936437
CZ-2C R/B               
1 37731U 11030B   26007.87619679  .00001450  00000+0  18979-3 0  9990
2 37731  97.8449 326.4108 0052475 186.7057 231.3210 14.80994325781097
H-2A R/B                
1 38341U 12025E   26007.95158308  .00002549  00000+0  23677-3 0  9990
2 38341  98.4635 330.2107 0045565 149.9427 210.4421 14.94638647739143
SHIJIAN-16 (SJ-16)      
1 39358U 13057A   26008.28929478  .00003266  00000+0  32300-3 0  9996
2 39358  74.9741 299.4158 0017889 258.4369 101.4811 14.92115194662490
